{
    "links": {
        "self": "http://www.neowsapp.com/rest/v1/neo/3254259?api_key=iIulBulltgU6a56xZRHN4H3l9WmuAYTsLGpBGhQ2"
    },
    "id": "3254259",
    "neo_reference_id": "3254259",
    "name": "(2004 SY4)",
    "designation": "2004 SY4",
    "nasa_jpl_url": "http://ssd.jpl.nasa.gov/sbdb.cgi?sstr=3254259",
    "absolute_magnitude_h": 24.4,
    "estimated_diameter": {
        "kilometers": {
            "estimated_diameter_min": 0.0350392641,
            "estimated_diameter_max": 0.0783501764
        },
        "meters": {
            "estimated_diameter_min": 35.0392641108,
            "estimated_diameter_max": 78.3501764334
        },
        "miles": {
            "estimated_diameter_min": 0.0217723826,
            "estimated_diameter_max": 0.0486845275
        },
        "feet": {
            "estimated_diameter_min": 114.9582192654,
            "estimated_diameter_max": 257.0543928497
        }
    },
    "is_potentially_hazardous_asteroid": false,
    "close_approach_data": [
        {
            "close_approach_date": "2004-09-29",
            "close_approach_date_full": "2004-Sep-29 19:35",
            "epoch_date_close_approach": 1096486500000,
            "relative_velocity": {
                "kilometers_per_second": "9.6931397459",
                "kilometers_per_hour": "34895.303085143",
                "miles_per_hour": "21682.5842975434"
            },
            "miss_distance": {
                "astronomical": "0.0214573457",
                "lunar": "8.3469074773",
                "kilometers": "3209973.212573659",
                "miles": "1994584.8641641342"
            },
            "orbiting_body": "Earth"
        }
    ],
    "orbital_data": {
        "orbit_id": "11",
        "orbit_determination_date": "2017-04-06 09:12:11",
        "first_observation_date": "2004-09-19",
        "last_observation_date": "2004-10-05",
        "data_arc_in_days": 16,
        "observations_used": 52,
        "orbit_uncertainty": "8",
        "minimum_orbit_intersection": ".0176287",
        "jupiter_tisserand_invariant": "3.250",
        "epoch_osculation": "2453270.5",
        "eccentricity": ".5870233987589969",
        "semi_major_axis": "2.409821712425498",
        "inclination": "8.266360161914637",
        "ascending_node_longitude": "5.66152664770969",
        "orbital_period": "1366.393528451637",
        "perihelion_distance": ".9951999803942562",
        "perihelion_argument": "22.7095331386643",
        "aphelion_distance": "3.82444344445674",
        "perihelion_time": "2453295.277859098079",
        "mean_anomaly": "353.4718446116937",
        "mean_motion": ".2634672899892486",
        "equinox": "J2000",
        "orbit_class": {
            "orbit_class_type": "APO",
            "orbit_class_description": "Near-Earth asteroid orbits which cross the Earth’s orbit similar to that of 1862 Apollo",
            "orbit_class_range": "a (semi-major axis) > 1.0 AU; q (perihelion) < 1.017 AU"
        }
    },
    "is_sentry_object": false
}